NORAD_CAT_ID,OBJECT_NAME,OBJECT_TYPE,EPOCH,MEAN_MOTION,ECCENTRICITY,INCLINATION,RA_OF_ASC_NODE,ARG_OF_PERICENTER,MEAN_ANOMALY,BSTAR,MEAN_MOTION_DOT,MEAN_MOTION_DDOT,TLE_LINE0,TLE_LINE1,TLE_LINE2,SEMIMAJOR_AXIS,PERIOD,APOGEE,PERIGEE,DECAYED
53550.0,STARLINK-4518,PAYLOAD,2022-11-16 14:14:56,15.08840241,0.0001544,53.2195,91.951,62.1737,297.9411,6.240899999999999e-05,7.05e-06,0.0,0 STARLINK-4518,1 53550U 22101Z   22320.59370757  .00000705  00000-0  62409-4 0  9993,2 53550  53.2195  91.9510 0001544  62.1737 297.9411 15.08840241 14438,6917.88,95.438,540.813,538.677,0.0
53550.0,STARLINK-4518,PAYLOAD,2022-11-16 17:25:42,15.08843182,0.0001557,53.2194,91.3566,58.5875,301.5269,5.5816e-05,6e-06,0.0,0 STARLINK-4518,1 53550U 22101Z   22320.72618527  .00000600  00000-0  55816-4 0  9996,2 53550  53.2194  91.3566 0001557  58.5875 301.5269 15.08843182 14450,6917.871,95.437,540.813,538.659,0.0
53550.0,STARLINK-4518,PAYLOAD,2022-11-17 12:30:20,15.08827201,0.0001574,53.2194,87.7884,56.7585,303.3557,0.00013542,1.867e-05,0.0,0 STARLINK-4518,1 53550U 22101Z   22321.52107608  .00001867  00000-0  13542-3 0  9993,2 53550  53.2194  87.7884 0001574  56.7585 303.3557 15.08827201 14576,6917.92,95.438,540.873,538.696,0.0
53550.0,STARLINK-4518,PAYLOAD,2022-11-17 15:41:07,15.08829569,0.000157,53.2194,87.1938,56.6692,303.445,0.00015329,2.152e-05,0.0,0 STARLINK-4518,1 53550U 22101Z   22321.65355569  .00002152  00000-0  15329-3 0  9991,2 53550  53.2194  87.1938 0001570  56.6692 303.4450 15.08829569 13935,6917.9119999999975,95.438,540.863,538.691,0.0
53550.0,STARLINK-4518,PAYLOAD,2022-11-19 01:04:12,15.08843162,0.0001582,53.22,80.9499,57.2642,302.8503,6.2656e-05,7.09e-06,0.0,0 STARLINK-4518,1 53550U 22101Z   22323.04459260  .00000709  00000-0  62656-4 0  9991,2 53550  53.2200  80.9499 0001582  57.2642 302.8503 15.08843162 14142,6917.871,95.437,540.83,538.641,0.0
53550.0,STARLINK-4518,PAYLOAD,2022-11-20 02:30:22,15.08843799,0.0001503,53.2197,76.192,53.6836,306.4295,8.4887e-05,1.063e-05,0.0,0 STARLINK-4518,1 53550U 22101Z   22324.10443096  .00001063  00000-0  84887-4 0  9993,2 53550  53.2197  76.1920 0001503  53.6836 306.4295 15.08843799 14303,6917.869000000002,95.437,540.774,538.694,0.0
53550.0,STARLINK-4518,PAYLOAD,2022-11-20 12:02:41,15.08839221,0.0001499,53.2193,74.4071,58.8123,301.3016,6.5165e-05,7.49e-06,0.0,0 STARLINK-4518,1 53550U 22101Z   22324.50187418  .00000749  00000-0  65165-4 0  9998,2 53550  53.2193  74.4071 0001499  58.8123 301.3016 15.08839221 15027,6917.8830000000025,95.438,540.785,538.711,0.0
53550.0,STARLINK-4518,PAYLOAD,2022-11-20 16:48:51,15.08838471,0.0001555,53.2199,73.5162,52.414,307.6993,5.9886e-05,6.65e-06,0.0,0 STARLINK-4518,1 53550U 22101Z   22324.70059514  .00000665  00000-0  59886-4 0  9995,2 53550  53.2199  73.5162 0001555  52.4140 307.6993 15.08838471 14394,6917.885,95.438,540.826,538.674,0.0
53550.0,STARLINK-4518,PAYLOAD,2022-11-20 18:24:14,15.08840801,0.0001519,53.22,73.2188,52.3763,307.7367,6.274e-05,7.11e-06,0.0,0 STARLINK-4518,1 53550U 22101Z   22324.76683305  .00000711  00000-0  62740-4 0  9997,2 53550  53.2200  73.2188 0001519  52.3763 307.7367 15.08840801 15063,6917.878000000002,95.438,540.794,538.692,0.0
53550.0,STARLINK-4518,PAYLOAD,2022-11-21 02:21:09,15.08846793,0.0001506,53.22,71.732,51.1799,308.9327,8.594100000000001e-05,1.0800000000000003e-05,0.0,0 STARLINK-4518,1 53550U 22101Z   22325.09802841  .00001080  00000-0  85941-4 0  9990,2 53550  53.2200  71.7320 0001506  51.1799 308.9327 15.08846793 14453,6917.86,95.437,540.766,538.683,0.0
53550.0,STARLINK-4518,PAYLOAD,2022-11-21 10:18:06,15.08837823,0.0001488,53.2201,70.2456,50.1475,309.9648,-1.4014000000000008e-05,-5.11e-06,0.0,0 STARLINK-4518,1 53550U 22101Z   22325.42923624 -.00000511  00000-0 -14014-4 0  9993,2 53550  53.2201  70.2456 0001488  50.1475 309.9648 15.08837823 14504,6917.887,95.438,540.781,538.7230000000002,0.0
53550.0,STARLINK-4518,PAYLOAD,2022-11-21 13:28:52,15.08839603,0.0001578,53.2201,69.6508,51.5148,308.5985,-1.6525e-05,-5.51e-06,0.0,0 STARLINK-4518,1 53550U 22101Z   22325.56171536 -.00000551  00000-0 -16525-4 0  9998,2 53550  53.2201  69.6508 0001578  51.5148 308.5985 15.08839603 15188,6917.882,95.438,540.8380000000002,538.655,0.0
53550.0,STARLINK-4518,PAYLOAD,2022-11-21 21:25:47,15.08853407,0.0001504,53.2201,68.1641,57.4408,302.6729,-4.6527e-05,-1.029e-05,0.0,0 STARLINK-4518,1 53550U 22101Z   22325.89290660 -.00001029  00000-0 -46527-4 0  9990,2 53550  53.2201  68.1641 0001504  57.4408 302.6729 15.08853407 15238,6917.839,95.437,540.745,538.664,0.0
53550.0,STARLINK-4518,PAYLOAD,2022-11-22 00:36:33,15.08846579,0.0001629,53.2201,67.5695,52.0838,308.0302,0.00013762,1.903e-05,0.0,0 STARLINK-4518,1 53550U 22101Z   22326.02538911  .00001903  00000-0  13762-3 0  9993,2 53550  53.2201  67.5695 0001629  52.0838 308.0302 15.08846579 14593,6917.86,95.437,540.852,538.5980000000002,0.0
53550.0,STARLINK-4518,PAYLOAD,2022-11-22 10:08:52,15.08839097,0.0001668,53.2194,65.7851,51.8408,308.2734,5.0874e-05,5.22e-06,0.0,0 STARLINK-4518,1 53550U 22101Z   22326.42283487  .00000522  00000-0  50874-4 0  9994,2 53550  53.2194  65.7851 0001668  51.8408 308.2734 15.08839097 14656,6917.8830000000025,95.438,540.9019999999998,538.594,0.0
53550.0,STARLINK-4518,PAYLOAD,2022-11-22 13:19:39,15.08839261,0.0001631999999999,53.2194,65.1903,52.1025,308.0115,3.8407e-05,3.23e-06,0.0,0 STARLINK-4518,1 53550U 22101Z   22326.55531488  .00000323  00000-0  38407-4 0  9992,2 53550  53.2194  65.1903 0001632  52.1025 308.0115 15.08839261 15338,6917.8830000000025,95.438,540.877,538.619,0.0
53550.0,STARLINK-4518,PAYLOAD,2022-11-22 21:16:34,15.08843347,0.0001605,53.2195,63.7037,50.6905,309.4229,0.00013947,1.933e-05,0.0,0 STARLINK-4518,1 53550U 22101Z   22326.88651259  .00001933  00000-0  13947-3 0  9996,2 53550  53.2195  63.7037 0001605  50.6905 309.4229 15.08843347 15387,6917.87,95.437,540.845,538.625,0.0
53550.0,STARLINK-4518,PAYLOAD,2022-11-23 11:35:03,15.08836679,0.000172,53.2196,61.0279,50.228,309.8863,0.00010612,1.401e-05,0.0,0 STARLINK-4518,1 53550U 22101Z   22327.48267782  .00001401  00000-0  10612-3 0  9993,2 53550  53.2196  61.0279 0001720  50.2280 309.8863 15.08836679 14812,6917.891,95.438,540.945,538.566,0.0
53550.0,STARLINK-4518,PAYLOAD,2022-11-23 21:07:21,15.08844833,0.000176,53.2197,59.2438,50.1544,309.9603,0.00018838,2.712e-05,0.0,0 STARLINK-4518,1 53550U 22101Z   22327.88011453  .00002712  00000-0  18838-3 0  9993,2 53550  53.2197  59.2438 0001760  50.1544 309.9603 15.08844833 15539,6917.866,95.437,540.948,538.513,0.0
53550.0,STARLINK-4518,PAYLOAD,2022-11-24 09:50:27,15.08837167,0.0001694,53.2198,56.8652,50.5401,309.5741,2.171400000000001e-05,5.8e-07,0.0,0 STARLINK-4518,1 53550U 22101Z   22328.41003750  .00000058  00000-0  21714-4 0  9993,2 53550  53.2198  56.8652 0001694  50.5401 309.5741 15.08837167 15613,6917.889,95.438,540.9259999999998,538.582,0.0
53550.0,STARLINK-4518,PAYLOAD,2022-11-24 13:01:13,15.08839021,0.0001756,53.2198,56.2707,49.4362,310.6783,6.4683e-05,7.41e-06,0.0,0 STARLINK-4518,1 53550U 22101Z   22328.54251737  .00000741  00000-0  64683-4 0  9998,2 53550  53.2198  56.2707 0001756  49.4362 310.6783 15.08839021 14978,6917.8830000000025,95.438,540.9630000000002,538.534,0.0
53550.0,STARLINK-4518,PAYLOAD,2022-11-24 20:58:08,15.08845615,0.0001716,53.2198,54.7839,49.6131,310.5011,5.9601e-06,-1.93e-06,0.0,0 STARLINK-4518,1 53550U 22101Z   22328.87371387 -.00000193  00000-0  59601-5 0  9995,2 53550  53.2198  54.7839 0001716  49.6131 310.5011 15.08845615 15687,6917.863,95.437,540.915,538.5409999999998,0.0
53550.0,STARLINK-4518,PAYLOAD,2022-11-25 12:52:00,15.08839428,0.0001753,53.2198,51.8104,48.2165,311.8977,0.00015493,2.178e-05,0.0,0 STARLINK-4518,1 53550U 22101Z   22329.53611922  .00002178  00000-0  15493-3 0  9994,2 53550  53.2198  51.8104 0001753  48.2165 311.8977 15.08839428 15784,6917.882,95.438,540.96,538.534,0.0
53550.0,STARLINK-4518,PAYLOAD,2022-11-25 17:38:09,15.08842822,0.0001754,53.2198,50.9185,47.011,313.1029,0.00016096,2.275e-05,0.0,0 STARLINK-4518,1 53550U 22101Z   22329.73483715  .00002275  00000-0  16096-3 0  9991,2 53550  53.2198  50.9185 0001754  47.0110 313.1029 15.08842822 15157,6917.871999999999,95.437,540.95,538.523,0.0
53550.0,STARLINK-4518,PAYLOAD,2022-11-25 20:48:56,15.08846377,0.0001783,53.2198,50.3239,46.4588,313.6552,0.00021489,3.134e-05,0.0,0 STARLINK-4518,1 53550U 22101Z   22329.86731588  .00003134  00000-0  21489-3 0  9996,2 53550  53.2198  50.3239 0001783  46.4588 313.6552 15.08846377 15835,6917.861,95.437,540.9590000000002,538.492,0.0
53550.0,STARLINK-4518,PAYLOAD,2022-11-26 11:07:24,15.08843973,0.0001761999999999,53.2195,47.6479,47.7627,312.3514,0.00012457,1.695e-05,0.0,0 STARLINK-4518,1 53550U 22101Z   22330.46347495  .00001695  00000-0  12457-3 0  9999,2 53550  53.2195  47.6479 0001762  47.7627 312.3514 15.08843973 15925,6917.868,95.437,540.952,538.514,0.0
53550.0,STARLINK-4518,PAYLOAD,2022-11-26 12:42:47,15.08844489,0.0001824,53.2195,47.3505,46.118,313.9963,0.00014856,2.077e-05,0.0,0 STARLINK-4518,1 53550U 22101Z   22330.52971493  .00002077  00000-0  14856-3 0  9997,2 53550  53.2195  47.3505 0001824  46.1180 313.9963 15.08844489 15937,6917.8669999999975,95.437,540.993,538.47,0.0
53550.0,STARLINK-4518,PAYLOAD,2022-11-27 01:25:52,15.088504,0.0001748,53.2192,44.9721,49.3183,310.796,0.00027992,4.171e-05,0.0,0 STARLINK-4518,1 53550U 22101Z   22331.05963189  .00004171  00000-0  27992-3 0  9991,2 53550  53.2192  44.9721 0001748  49.3183 310.7960 15.08850400 15358,6917.849,95.437,540.923,538.504,0.0
53550.0,STARLINK-4518,PAYLOAD,2022-11-27 07:47:24,15.088412599999998,0.0001691,53.2193,43.7823,49.4803,310.6336,2.4781e-05,1.06e-06,0.0,0 STARLINK-4518,1 53550U 22101Z   22331.32459391  .00000106  00000-0  24781-4 0  9994,2 53550  53.2193  43.7823 0001691  49.4803 310.6336 15.08841260 15390,6917.877,95.437,540.911,538.572,0.0
